{
  "norad_id": 63970,
  "name": "STARLINK-34084",
  "history": [
    {
      "epoch": "2026-03-28T16:01:18.378912Z",
      "apogee_km": 483.80640044749,
      "perigee_km": 482.0425587623131,
      "latitude_deg": -6.610156348031252e-06,
      "longitude_deg": 2.2012875239869087,
      "height_km": 483.0968110485884,
      "semi_major_axis_km": 6861.061479604901,
      "eccentricity": 0.00012854,
      "inclination_deg": 43.0042,
      "raan_deg": 68.6126,
      "arg_perigee_deg": 243.3604,
      "mean_anomaly_deg": 116.7116,
      "mean_motion_rev_day": 15.27621618
    },
    {
      "epoch": "2026-03-28T23:52:04.095840Z",
      "apogee_km": 484.06623058744935,
      "perigee_km": 481.68545913028265,
      "latitude_deg": 4.097296065479144e-06,
      "longitude_deg": -117.65981348995632,
      "height_km": 483.17331098129057,
      "semi_major_axis_km": 6861.012844858866,
      "eccentricity": 0.0001735,
      "inclination_deg": 43.0013,
      "raan_deg": 66.7642,
      "arg_perigee_deg": 244.0676,
      "mean_anomaly_deg": 115.9997,
      "mean_motion_rev_day": 15.27637861
    },
    {
      "epoch": "2026-03-29T23:24:26.415936Z",
      "apogee_km": 484.0073091584982,
      "perigee_km": 482.1081304600557,
      "latitude_deg": 3.067220545657573e-05,
      "longitude_deg": -117.25671934374306,
      "height_km": 483.08143064595544,
      "semi_major_axis_km": 6861.194719809277,
      "eccentricity": 0.0001384,
      "inclination_deg": 43.0038,
      "raan_deg": 61.227,
      "arg_perigee_deg": 254.9435,
      "mean_anomaly_deg": 105.1264,
      "mean_motion_rev_day": 15.2757712
    },
    {
      "epoch": "2026-03-30T05:41:04.000704Z",
      "apogee_km": 484.22440006360284,
      "perigee_km": 481.8209358319209,
      "latitude_deg": -4.5454069189954224e-05,
      "longitude_deg": 146.85190495015857,
      "height_km": 482.8994152739685,
      "semi_major_axis_km": 6861.159667947762,
      "eccentricity": 0.00017515,
      "inclination_deg": 43.0041,
      "raan_deg": 59.7501,
      "arg_perigee_deg": 265.2592,
      "mean_anomaly_deg": 94.8059,
      "mean_motion_rev_day": 15.27588826
    },
    {
      "epoch": "2026-03-30T22:56:48.044832Z",
      "apogee_km": 483.8898556795302,
      "perigee_km": 482.2369924973664,
      "latitude_deg": -5.159266461929719e-05,
      "longitude_deg": -116.85235274580093,
      "height_km": 483.238090794435,
      "semi_major_axis_km": 6861.200424088448,
      "eccentricity": 0.00012045,
      "inclination_deg": 43.0028,
      "raan_deg": 55.6883,
      "arg_perigee_deg": 241.2111,
      "mean_anomaly_deg": 118.8619,
      "mean_motion_rev_day": 15.27575215
    }
  ]
}